OBJECT_NAME,OBJECT_ID,EPOCH,MEAN_MOTION,ECCENTRICITY,INCLINATION,RA_OF_ASC_NODE,ARG_OF_PERICENTER,MEAN_ANOMALY,EPHEMERIS_TYPE,CLASSIFICATION_TYPE,NORAD_CAT_ID,ELEMENT_SET_NO,REV_AT_EPOCH,BSTAR,MEAN_MOTION_DOT,MEAN_MOTION_DDOT
STARLINK-37502,2026-117AB,2026-06-04T18:00:02.998944,16.08259663,.000065,53.1573,306.0131,45.3515,49.2630,0,U,69263,999,217,-.21199E-2,-.1823176E-1,.11017E-2
STARLINK-37486,2026-117AC,2026-06-04T18:00:02.998944,16.08254003,.0000674,53.1572,306.0016,71.4253,28.8422,0,U,69264,999,217,-.21479E-2,-.184631E-1,.11283E-2
STARLINK-37435,2026-117AD,2026-06-04T18:00:02.998944,16.08682973,.000043,53.1573,305.9907,46.3558,58.7411,0,U,69265,999,217,-.20579E-2,-.1818679E-1,.11027E-2
STARLINK-37464,2026-117AE,2026-06-04T18:00:02.998944,16.09112933,.0000702,53.1573,305.9799,69.3463,40.9868,0,U,69266,999,217,-.19707E-2,-.1791045E-1,.10773E-2
KUIPER-00282,2026-118A,2026-06-04T18:00:02.998944,15.35268480,.0012261,51.8577,113.4920,141.7503,22.3285,0,U,69267,999,144,.16475E-2,.57465E-3,0
KUIPER-00383,2026-118B,2026-06-04T18:00:02.998944,15.35754529,.0011133,51.8580,113.4754,137.3347,34.7704,0,U,69268,999,150,.165E-2,.58444E-3,0
KUIPER-00527,2026-118C,2026-06-04T18:00:02.998944,15.35967203,.0010015,51.8605,113.4589,131.4281,48.6078,0,U,69269,999,130,.1759E-2,.6277E-3,0
KUIPER-00562,2026-118D,2026-06-04T18:00:02.998944,15.38308086,.0002008,51.8709,113.3525,86.9950,137.9200,0,U,69270,999,203,.16789E-2,.64551E-3,0
KUIPER-00570,2026-118E,2026-06-04T18:00:02.998944,15.35638889,.0011142,51.8566,113.4729,140.4994,32.9159,0,U,69271,999,162,.16536E-2,.58354E-3,0
KUIPER-00572,2026-118F,2026-06-04T18:00:02.998944,15.36679723,.0007503,51.8660,113.4336,126.7732,64.5084,0,U,69272,999,137,.16614E-2,.60586E-3,0
KUIPER-00581,2026-118G,2026-06-04T18:00:02.998944,15.36357858,.0009093,51.8641,113.4484,131.4611,53.2241,0,U,69273,999,216,.16619E-2,.59999E-3,0
KUIPER-00584,2026-118H,2026-06-04T18:00:02.998944,15.35256422,.001141,51.8593,113.4841,140.8287,26.9896,0,U,69274,999,130,.18049E-2,.62994E-3,0
KUIPER-00587,2026-118J,2026-06-04T18:00:02.998944,15.36333022,.0008294,51.8615,113.4427,131.8051,56.2042,0,U,69275,999,130,.1818E-2,.65652E-3,0
KUIPER-00590,2026-118K,2026-06-04T18:00:02.998944,15.37553696,.0004642,51.8675,113.3950,116.2797,93.2441,0,U,69276,999,192,.16955E-2,.63613E-3,0
KUIPER-00592,2026-118L,2026-06-04T18:00:02.998944,15.37764818,.0003724,51.8696,113.3827,95.2448,118.5188,0,U,69277,999,130,.16842E-2,.63613E-3,0
KUIPER-00593,2026-118M,2026-06-04T18:00:02.998944,15.37672537,.0004198,51.8702,113.3809,111.2332,102.5261,0,U,69278,999,213,.1728E-2,.651E-3,0
KUIPER-00594,2026-118N,2026-06-04T18:00:02.998944,15.38477924,.000136,51.8707,113.3479,54.0473,175.0661,0,U,69279,999,130,.18238E-2,.70602E-3,0
KUIPER-00595,2026-118P,2026-06-04T18:00:02.998944,15.38164957,.0001928,51.8698,113.3611,94.6114,129.4454,0,U,69280,999,210,.15938E-2,.6094E-3,0
KUIPER-00596,2026-118Q,2026-06-04T18:00:02.998944,15.35508550,.0012079,51.8542,113.4828,139.4905,28.9221,0,U,69281,999,137,.18522E-2,.65214E-3,0
KUIPER-00597,2026-118R,2026-06-04T18:00:02.998944,15.36863521,.0007145,51.8636,113.4232,127.1090,70.0911,0,U,69282,999,130,.17137E-2,.62896E-3,0
KUIPER-00599,2026-118S,2026-06-04T18:00:02.998944,15.37040609,.000638,51.8678,113.4143,121.0003,78.8715,0,U,69283,999,130,.16873E-2,.62262E-3,0
KUIPER-00600,2026-118T,2026-06-04T18:00:02.998944,15.36439221,.0009151,51.8627,113.4410,129.1295,59.4581,0,U,69284,999,195,.18819E-2,.68246E-3,0
KUIPER-00601,2026-118U,2026-06-04T18:00:02.998944,15.37363516,.0004913,51.8691,113.4008,114.2831,91.2262,0,U,69285,999,198,.17134E-2,.63898E-3,0
KUIPER-00602,2026-118V,2026-06-04T18:00:02.998944,15.37805433,.0003254,51.8688,113.3787,103.4584,113.1261,0,U,69286,999,130,.16867E-2,.63793E-3,0
KUIPER-00603,2026-118W,2026-06-04T18:00:02.998944,15.37215944,.0005692,51.8659,113.4088,117.4150,86.2233,0,U,69287,999,193,.16891E-2,.62679E-3,0
KUIPER-00605,2026-118X,2026-06-04T18:00:02.998944,15.36767188,.0007769,51.8649,113.4305,122.3301,70.9386,0,U,69288,999,177,.17265E-2,.63182E-3,0
KUIPER-00606,2026-118Y,2026-06-04T18:00:02.998944,15.37464605,.0004894,51.8682,113.3956,110.7029,97.9019,0,U,69289,999,162,.17182E-2,.64289E-3,0
KUIPER-00607,2026-118Z,2026-06-04T18:00:02.998944,15.37145647,.0006529,51.8667,113.4111,115.6289,86.3499,0,U,69290,999,158,.16667E-2,.61705E-3,0
KUIPER-00608,2026-118AA,2026-06-04T18:00:02.998944,15.36135202,.000996,51.8591,113.4542,136.1140,46.5593,0,U,69291,999,155,.18368E-2,.65948E-3,0
KUIPER-00610,2026-118AB,2026-06-04T18:00:02.998944,15.37987467,.000291,51.8708,113.3665,96.2259,123.2340,0,U,69292,999,147,.16885E-2,.64245E-3,0
