STARLINK-37502          
1 69263U 26117AB  26155.75003471 -.01823176  11017-2 -21199-2 0  9995
2 69263  53.1573 306.0131 0000650  45.3515  49.2630 16.08259663  2170
STARLINK-37486          
1 69264U 26117AC  26155.75003471 -.01846310  11283-2 -21479-2 0  9997
2 69264  53.1572 306.0016 0000674  71.4253  28.8422 16.08254003  2172
STARLINK-37435          
1 69265U 26117AD  26155.75003471 -.01818679  11027-2 -20579-2 0  9991
2 69265  53.1573 305.9907 0000430  46.3558  58.7411 16.08682973  2171
STARLINK-37464          
1 69266U 26117AE  26155.75003471 -.01791045  10773-2 -19707-2 0  9997
2 69266  53.1573 305.9799 0000702  69.3463  40.9868 16.09112933  2177
KUIPER-00282            
1 69267U 26118A   26155.75003471  .00057465  00000+0  16475-2 0  9995
2 69267  51.8577 113.4920 0012261 141.7503  22.3285 15.35268480  1441
KUIPER-00383            
1 69268U 26118B   26155.75003471  .00058444  00000+0  16500-2 0  9993
2 69268  51.8580 113.4754 0011133 137.3347  34.7704 15.35754529  1509
KUIPER-00527            
1 69269U 26118C   26155.75003471  .00062770  00000+0  17590-2 0  9991
2 69269  51.8605 113.4589 0010015 131.4281  48.6078 15.35967203  1305
KUIPER-00562            
1 69270U 26118D   26155.75003471  .00064551  00000+0  16789-2 0  9991
2 69270  51.8709 113.3525 0002008  86.9950 137.9200 15.38308086  2032
KUIPER-00570            
1 69271U 26118E   26155.75003471  .00058354  00000+0  16536-2 0  9996
2 69271  51.8566 113.4729 0011142 140.4994  32.9159 15.35638889  1629
KUIPER-00572            
1 69272U 26118F   26155.75003471  .00060586  00000+0  16614-2 0  9994
2 69272  51.8660 113.4336 0007503 126.7732  64.5084 15.36679723  1375
KUIPER-00581            
1 69273U 26118G   26155.75003471  .00059999  00000+0  16619-2 0  9996
2 69273  51.8641 113.4484 0009093 131.4611  53.2241 15.36357858  2164
KUIPER-00584            
1 69274U 26118H   26155.75003471  .00062994  00000+0  18049-2 0  9995
2 69274  51.8593 113.4841 0011410 140.8287  26.9896 15.35256422  1309
KUIPER-00587            
1 69275U 26118J   26155.75003471  .00065652  00000+0  18180-2 0  9996
2 69275  51.8615 113.4427 0008294 131.8051  56.2042 15.36333022  1302
KUIPER-00590            
1 69276U 26118K   26155.75003471  .00063613  00000+0  16955-2 0  9990
2 69276  51.8675 113.3950 0004642 116.2797  93.2441 15.37553696  1920
KUIPER-00592            
1 69277U 26118L   26155.75003471  .00063613  00000+0  16842-2 0  9996
2 69277  51.8696 113.3827 0003724  95.2448 118.5188 15.37764818  1307
KUIPER-00593            
1 69278U 26118M   26155.75003471  .00065100  00000+0  17280-2 0  9997
2 69278  51.8702 113.3809 0004198 111.2332 102.5261 15.37672537  2136
KUIPER-00594            
1 69279U 26118N   26155.75003471  .00070602  00000+0  18238-2 0  9995
2 69279  51.8707 113.3479 0001360  54.0473 175.0661 15.38477924  1304
KUIPER-00595            
1 69280U 26118P   26155.75003471  .00060940  00000+0  15938-2 0  9995
2 69280  51.8698 113.3611 0001928  94.6114 129.4454 15.38164957  2106
KUIPER-00596            
1 69281U 26118Q   26155.75003471  .00065214  00000+0  18522-2 0  9997
2 69281  51.8542 113.4828 0012079 139.4905  28.9221 15.35508550  1372
KUIPER-00597            
1 69282U 26118R   26155.75003471  .00062896  00000+0  17137-2 0  9992
2 69282  51.8636 113.4232 0007145 127.1090  70.0911 15.36863521  1303
KUIPER-00599            
1 69283U 26118S   26155.75003471  .00062262  00000+0  16873-2 0  9996
2 69283  51.8678 113.4143 0006380 121.0003  78.8715 15.37040609  1301
KUIPER-00600            
1 69284U 26118T   26155.75003471  .00068246  00000+0  18819-2 0  9997
2 69284  51.8627 113.4410 0009151 129.1295  59.4581 15.36439221  1952
KUIPER-00601            
1 69285U 26118U   26155.75003471  .00063898  00000+0  17134-2 0  9995
2 69285  51.8691 113.4008 0004913 114.2831  91.2262 15.37363516  1986
KUIPER-00602            
1 69286U 26118V   26155.75003471  .00063793  00000+0  16867-2 0  9992
2 69286  51.8688 113.3787 0003254 103.4584 113.1261 15.37805433  1306
KUIPER-00603            
1 69287U 26118W   26155.75003471  .00062679  00000+0  16891-2 0  9992
2 69287  51.8659 113.4088 0005692 117.4150  86.2233 15.37215944  1932
KUIPER-00605            
1 69288U 26118X   26155.75003471  .00063182  00000+0  17265-2 0  9999
2 69288  51.8649 113.4305 0007769 122.3301  70.9386 15.36767188  1776
KUIPER-00606            
1 69289U 26118Y   26155.75003471  .00064289  00000+0  17182-2 0  9997
2 69289  51.8682 113.3956 0004894 110.7029  97.9019 15.37464605  1624
KUIPER-00607            
1 69290U 26118Z   26155.75003471  .00061705  00000+0  16667-2 0  9996
2 69290  51.8667 113.4111 0006529 115.6289  86.3499 15.37145647  1583
KUIPER-00608            
1 69291U 26118AA  26155.75003471  .00065948  00000+0  18368-2 0  9990
2 69291  51.8591 113.4542 0009960 136.1140  46.5593 15.36135202  1559
KUIPER-00610            
1 69292U 26118AB  26155.75003471  .00064245  00000+0  16885-2 0  9992
2 69292  51.8708 113.3665 0002910  96.2259 123.2340 15.37987467  1473
